0 COSMOS 886 DEB
1 09649U 76126F   13284.19047941  .00000551  00000-0  56227-3 0  9742
2 09649 065.9309 181.1565 0920597 116.2955 034.2699 12.67400445693206
0 COSMOS 886 DEB
1 09649U 76126F   13286.24019109  .00000560  00000-0  56994-3 0  9757
2 09649 065.9306 176.9143 0920574 115.4024 026.3864 12.67402118693463
0 COSMOS 886 DEB
1 09649U 76126F   13288.74908260  .00000713  00000-0  71100-3 0  9766
2 09649 065.9301 171.7217 0920605 114.3107 313.5999 12.67406488693787
0 COSMOS 886 DEB
1 09649U 76126F   13291.13554409  .00000538  00000-0  55017-3 0  9770
2 09649 065.9297 166.7823 0920534 113.2740 042.2339 12.67410294694088
0 COSMOS 886 DEB
1 09649U 76126F   13293.80114664  .00000523  00000-0  53614-3 0  9787
2 09649 065.9296 161.2650 0920524 112.1154 324.5364 12.67413511694428
0 COSMOS 886 DEB
1 09649U 76126F   13295.85488440  .00000512  00000-0  52653-3 0  9791
2 09649 065.9294 157.0140 0920490 111.2222 335.1162 12.67416138694681
